ONEWEB-0431             
1 51630U 22012J   24007.58309728 -.00000369  00000+0 -10931-2 0  9992
2 51630  87.8888 213.3687 0002188  87.1755 272.9623 13.10371248 93863
ONEWEB-0434             
1 51631U 22012K   24007.94228651  .00000619  00000+0  17363-2 0  9990
2 51631  87.8898 213.3015 0001499  98.6234 261.5063 13.10372228 92605
ONEWEB-0435             
1 51632U 22012L   24008.48491863  .00000451  00000+0  12567-2 0  9993
2 51632  87.8896 213.1838 0001780 101.0125 259.1203 13.10370569 93949
ONEWEB-0436             
1 51633U 22012M   24008.48179733  .00000377  00000+0  93743-3 0  9996
2 51633  87.9201 182.9625 0001751 106.1224 254.0100 13.17651695 97675
ONEWEB-0438             
1 51634U 22012N   24007.93418290  .00000494  00000+0  13776-2 0  9997
2 51634  87.8900 213.2939 0001232  90.3972 269.7296 13.10372319 92620
ONEWEB-0439             
1 51635U 22012P   24008.47193658  .00000652  00000+0  18322-2 0  9994
2 51635  87.8900 213.1709 0001531  88.4716 271.6587 13.10375826 93959
ONEWEB-0442             
1 51636U 22012Q   24008.47388642  .00000053  00000+0  10269-3 0  9992
2 51636  87.9207 182.9928 0001235  62.7274 297.3983 13.17649428 97668
ONEWEB-0443             
1 51637U 22012R   24008.49286154  .00000086  00000+0  18735-3 0  9992
2 51637  87.9207 182.9940 0001535 114.0832 246.0460 13.17650360 97711
